OBJECT_NAME,OBJECT_ID,EPOCH,MEAN_MOTION,ECCENTRICITY,INCLINATION,RA_OF_ASC_NODE,ARG_OF_PERICENTER,MEAN_ANOMALY,EPHEMERIS_TYPE,CLASSIFICATION_TYPE,NORAD_CAT_ID,ELEMENT_SET_NO,REV_AT_EPOCH,BSTAR,MEAN_MOTION_DOT,MEAN_MOTION_DDOT
INTELSAT 21 (IS-21),2012-045A,2026-06-20T09:07:58.980000,1.00272238,.000146,0.0191,17.6891,83.4046,246.4937,0,U,38749,999,5055,0,-.289E-5,0
INTELSAT 23 (IS-23),2012-057A,2026-06-19T05:29:59.907840,1.00267375,.00001343,0.0099,325.5761,86.5042,244.8525,0,U,38867,999,4997,0,-.291E-5,0
FM-6,2013-058A,2026-06-20T08:46:26.645952,1.00271043,.00014,0.0369,53.5945,119.5580,110.7383,0,U,39360,999,4610,0,0,0
INTELSAT 30 (IS-30),2014-062A,2026-06-20T03:49:21.257184,1.00256820,.00010173,0.0266,53.4926,9.4262,167.7293,0,U,40271,999,682,0,-.154E-5,0
DIRECTV 14,2014-078B,2026-06-20T08:30:38.771424,1.00270509,.0000249,0.0110,22.7054,291.5498,342.7307,0,U,40333,999,4207,0,-.13E-5,0
DIRECTV 15,2015-026A,2026-06-20T00:21:51.856128,1.00273256,.00002188,0.0158,57.5517,316.6058,156.6548,0,U,40663,999,4049,0,-.108E-5,0
SKY MEXICO-1,2015-026B,2026-06-20T09:01:59.555136,1.00272203,.000216,0.0192,61.3246,44.3132,219.6461,0,U,40664,999,4048,0,-.239E-5,0
INTELSAT 34 (IS-34),2015-039A,2026-06-19T22:52:46.492032,1.00300971,.0001908,0.0091,6.4511,313.7582,235.6766,0,U,40874,999,3966,0,-.291E-5,0
INTELSAT 31 (IS-31),2016-035A,2026-06-19T22:41:25.884672,1.00271353,.00009291,0.0181,266.4038,350.7570,256.3060,0,U,41581,999,3671,0,-.156E-5,0
INTELSAT 36 (IS-36),2016-053A,2026-06-20T00:29:40.864704,1.00268779,.00023003,0.0114,8.6950,324.1758,11.2854,0,U,41747,999,3598,0,-.29E-6,0
INTELSAT 32E (IS-32E),2017-007B,2026-06-20T04:04:12.601056,1.00270661,.00006273,0.0183,13.4283,315.6456,317.1739,0,U,41945,999,3425,0,-.274E-5,0
INTELSAT 35E (IS-35E),2017-041A,2026-06-20T09:14:35.847168,1.00272940,.0002053,0.0180,23.6269,67.1464,281.9730,0,U,42818,999,3284,0,-.242E-5,0
INTELSAT 37E (IS-37E),2017-059A,2026-06-20T09:19:20.391744,1.00271079,.0002602,0.0188,18.2553,94.8556,277.3301,0,U,42950,999,3209,0,-.145E-5,0
AZERSPACE 2 (IS-38),2018-074A,2026-06-20T04:29:25.184256,1.00271425,.0001411,0.0176,12.5072,75.0400,293.3134,0,U,43632,999,2847,0,.132E-5,0
HORIZONS-3E,2018-074B,2026-06-19T20:31:26.550624,1.00267073,.00008931,0.0016,83.0794,215.5434,86.3125,0,U,43633,999,2836,0,-.37E-6,0
AT&T T-16,2019-034A,2026-06-20T08:30:38.771424,1.00270065,.000065,0.0207,65.5499,225.8469,3.9721,0,U,44333,999,2566,0,-.12E-5,0
INTELSAT 39 (IS-39),2019-049B,2026-06-22T11:19:14.501568,1.00271710,.0000935,0.0076,349.4901,354.6245,158.2934,0,U,44476,999,2518,0,.35E-6,0
GALAXY 30 (G-30),2020-056C,2026-06-20T09:28:38.667936,1.00273107,.0002284,0.0183,12.9122,75.3591,197.4940,0,U,46114,999,2132,0,.32E-6,0
GALAXY 33 (G-33),2022-128A,2026-06-20T09:28:38.667936,1.00270656,.0001741,0.0225,55.3005,30.1498,192.3075,0,U,54026,999,1377,0,.75E-6,0
GALAXY 34 (G-34),2022-128B,2026-06-20T00:50:38.717376,1.00275411,.00017584,0.0124,53.5288,53.8534,44.5334,0,U,54027,999,1394,0,.53E-6,0
GALAXY 31 (G-31),2022-153A,2026-06-20T05:24:41.082336,1.00272126,.000117,0.0250,88.2921,352.9233,147.3806,0,U,54243,999,716,0,.8E-7,0
GALAXY 32 (G-32),2022-153B,2026-06-20T05:33:04.082400,1.00271613,.0002075,0.0157,36.0739,1.5238,223.1141,0,U,54244,999,1317,0,-.179E-5,0
GALAXY 35 (G-35),2022-170A,2026-06-20T08:57:52.450272,1.00271920,.0001886,0.0184,78.3754,7.7151,223.8506,0,U,54741,999,1292,0,-.167E-5,0
GALAXY 36 (G-36),2022-170B,2026-06-20T08:59:07.328832,1.00272198,.0002602,0.0027,66.1363,18.0076,230.2209,0,U,54742,999,1280,0,-.19E-5,0
GALAXY 37 (G-37),2023-112A,2026-06-20T09:28:38.667936,1.00271511,.0002022,0.0142,358.8482,87.9609,196.9518,0,U,57493,999,1057,0,.44E-6,0
